start=new Date('2022-03-29T00:00:00.000Z').valueOf();
sats=[{"COUNTRY_CODE":"US","BSTAR":"0.00020113000000","SITE":"AFETR","MEAN_ANOMALY":"310.4035","SEMIMAJOR_AXIS":"6925.323","EPHEMERIS_TYPE":"0","GP_ID":"199944121","CENTER_NAME":"EARTH","RA_OF_ASC_NODE":"55.2820","APOAPSIS":"548.815","MEAN_ELEMENT_THEORY":"SGP4","REF_FRAME":"TEME","MEAN_MOTION_DDOT":"0.0000000000000","EPOCH":"2022-03-28T15:03:54.715104","TLE_LINE2":"2 47397  53.0551  55.2820 0002349  49.7159 310.4035 15.06408306 65691","MEAN_MOTION":"15.06408306","MEAN_MOTION_DOT":"0.00002716","OBJECT_ID":"2021-005BA","OBJECT_TYPE":"PAYLOAD","ARG_OF_PERICENTER":"49.7159","DECAY_DATE":null,"CLASSIFICATION_TYPE":"U","NORAD_CAT_ID":"47397","RCS_SIZE":"LARGE","FILE":"3378342","TIME_SYSTEM":"UTC","TLE_LINE1":"1 47397U 21005BA  22087.62771661  .00002716  00000-0  20113-3 0  9999","REV_AT_EPOCH":"6569","ECCENTRICITY":"0.00023490","LAUNCH_DATE":"2021-01-20","PERIOD":"95.592","ELEMENT_SET_NO":"999","PERIAPSIS":"545.561","OBJECT_NAME":"STARLINK-2119","INCLINATION":"53.0551"},{"TIME_SYSTEM":"UTC","FILE":"3378342","DECAY_DATE":null,"ARG_OF_PERICENTER":"61.2425","OBJECT_TYPE":"PAYLOAD","NORAD_CAT_ID":"47398","RCS_SIZE":"LARGE","CLASSIFICATION_TYPE":"U","PERIAPSIS":"546.077","INCLINATION":"53.0569","OBJECT_NAME":"STARLINK-2120","ELEMENT_SET_NO":"999","LAUNCH_DATE":"2021-01-20","PERIOD":"95.592","REV_AT_EPOCH":"6614","TLE_LINE1":"1 47398U 21005BB  22087.86638069  .00002757  00000-0  20390-3 0  9992","ECCENTRICITY":"0.00016080","MEAN_ELEMENT_THEORY":"SGP4","APOAPSIS":"548.304","CENTER_NAME":"EARTH","GP_ID":"199942869","RA_OF_ASC_NODE":"24.2105","SEMIMAJOR_AXIS":"6925.325","EPHEMERIS_TYPE":"0","SITE":"AFETR","BSTAR":"0.00020390000000","COUNTRY_CODE":"US","MEAN_ANOMALY":"298.8726","OBJECT_ID":"2021-005BB","MEAN_MOTION_DOT":"0.00002757","MEAN_MOTION":"15.06407587","EPOCH":"2022-03-28T20:47:35.291616","TLE_LINE2":"2 47398  53.0569  24.2105 0001608  61.2425 298.8726 15.06407587 66142","MEAN_MOTION_DDOT":"0.0000000000000","REF_FRAME":"TEME"},{"LAUNCH_DATE":"2021-01-20","PERIOD":"95.591","TLE_LINE1":"1 47399U 21005BC  22087.54752942  .00001928  00000-0  14824-3 0  9999","REV_AT_EPOCH":"6595","ECCENTRICITY":"0.00017020","PERIAPSIS":"546.002","OBJECT_NAME":"STARLINK-2121","INCLINATION":"53.0575","ELEMENT_SET_NO":"999","OBJECT_TYPE":"PAYLOAD","ARG_OF_PERICENTER":"51.7047","DECAY_DATE":null,"CLASSIFICATION_TYPE":"U","NORAD_CAT_ID":"47399","RCS_SIZE":"LARGE","TIME_SYSTEM":"UTC","FILE":"3377801","EPOCH":"2022-03-28T13:08:26.541888","TLE_LINE2":"2 47399  53.0575  35.6555 0001702  51.7047 308.4095 15.06410590 65957","REF_FRAME":"TEME","MEAN_MOTION_DDOT":"0.0000000000000","OBJECT_ID":"2021-005BC","MEAN_MOTION_DOT":"0.00001928","MEAN_MOTION":"15.06410590","SEMIMAJOR_AXIS":"6925.316","EPHEMERIS_TYPE":"0","BSTAR":"0.00014824000000","COUNTRY_CODE":"US","SITE":"AFETR","MEAN_ANOMALY":"308.4095","APOAPSIS":"548.360","MEAN_ELEMENT_THEORY":"SGP4","GP_ID":"199905393","CENTER_NAME":"EARTH","RA_OF_ASC_NODE":"35.6555"},{"EPOCH":"2022-03-28T22:17:50.024544","TLE_LINE2":"2 47400  53.0561  13.9226 0001260  65.1452 294.9668 15.06369081 66298","MEAN_MOTION_DDOT":"0.0000000000000","REF_FRAME":"TEME","OBJECT_ID":"2021-005BD","MEAN_MOTION":"15.06369081","MEAN_MOTION_DOT":"0.00021261","SEMIMAJOR_AXIS":"6925.443","EPHEMERIS_TYPE":"0","SITE":"AFETR","COUNTRY_CODE":"US","BSTAR":"0.00144310000000","MEAN_ANOMALY":"294.9668","MEAN_ELEMENT_THEORY":"SGP4","APOAPSIS":"548.181","CENTER_NAME":"EARTH","GP_ID":"199943871","RA_OF_ASC_NODE":"13.9226","LAUNCH_DATE":"2021-01-20","PERIOD":"95.594","REV_AT_EPOCH":"6629","TLE_LINE1":"1 47400U 21005BD  22087.92905121  .00021261  00000-0  14431-2 0  9998","ECCENTRICITY":"0.00012600","PERIAPSIS":"546.436","INCLINATION":"53.0561","OBJECT_NAME":"STARLINK-2122","ELEMENT_SET_NO":"999","ARG_OF_PERICENTER":"65.1452","DECAY_DATE":null,"OBJECT_TYPE":"PAYLOAD","NORAD_CAT_ID":"47400","RCS_SIZE":"LARGE","CLASSIFICATION_TYPE":"U","TIME_SYSTEM":"UTC","FILE":"3378342"},{"OBJECT_TYPE":"PAYLOAD","DECAY_DATE":null,"ARG_OF_PERICENTER":"58.5298","CLASSIFICATION_TYPE":"U","RCS_SIZE":"LARGE","NORAD_CAT_ID":"47401","FILE":"3378342","TIME_SYSTEM":"UTC","TLE_LINE1":"1 47401U 21005BE  22087.81478250  .00001907  00000-0  14684-3 0  9991","REV_AT_EPOCH":"6614","ECCENTRICITY":"0.00018830","LAUNCH_DATE":"2021-01-20","PERIOD":"95.592","ELEMENT_SET_NO":"999","PERIAPSIS":"545.883","OBJECT_NAME":"STARLINK-2123","INCLINATION":"53.0572","BSTAR":"0.00014684000000","COUNTRY_CODE":"US","SITE":"AFETR","MEAN_ANOMALY":"301.5875","SEMIMAJOR_AXIS":"6925.322","EPHEMERIS_TYPE":"0","GP_ID":"199943621","CENTER_NAME":"EARTH","RA_OF_ASC_NODE":"24.4590","APOAPSIS":"548.491","MEAN_ELEMENT_THEORY":"SGP4","REF_FRAME":"TEME","MEAN_MOTION_DDOT":"0.0000000000000","EPOCH":"2022-03-28T19:33:17.208000","TLE_LINE2":"2 47401  53.0572  24.4590 0001883  58.5298 301.5875 15.06408525 66143","MEAN_MOTION":"15.06408525","MEAN_MOTION_DOT":"0.00001907","OBJECT_ID":"2021-005BE"},{"EPHEMERIS_TYPE":"0","SEMIMAJOR_AXIS":"6925.328","MEAN_ANOMALY":"309.6717","BSTAR":"0.00012810000000","COUNTRY_CODE":"US","SITE":"AFETR","APOAPSIS":"548.432","MEAN_ELEMENT_THEORY":"SGP4","RA_OF_ASC_NODE":"27.0412","GP_ID":"199904644","CENTER_NAME":"EARTH","TLE_LINE2":"2 47402  53.0561  27.0412 0001789  50.4430 309.6717 15.06406696 66059","EPOCH":"2022-03-28T05:39:57.660192","REF_FRAME":"TEME","MEAN_MOTION_DDOT":"0.0000000000000","OBJECT_ID":"2021-005BF","MEAN_MOTION":"15.06406696","MEAN_MOTION_DOT":"0.00001627","CLASSIFICATION_TYPE":"U","NORAD_CAT_ID":"47402","RCS_SIZE":"LARGE","OBJECT_TYPE":"PAYLOAD","ARG_OF_PERICENTER":"50.4430","DECAY_DATE":null,"TIME_SYSTEM":"UTC","FILE":"3377801","PERIOD":"95.592","LAUNCH_DATE":"2021-01-20","ECCENTRICITY":"0.00017890","TLE_LINE1":"1 47402U 21005BF  22087.23608403  .00001627  00000-0  12810-3 0  9991","REV_AT_EPOCH":"6605","OBJECT_NAME":"STARLINK-2124","INCLINATION":"53.0561","PERIAPSIS":"545.954","ELEMENT_SET_NO":"999"},{"ARG_OF_PERICENTER":"63.0267","DECAY_DATE":null,"OBJECT_TYPE":"PAYLOAD","RCS_SIZE":"LARGE","NORAD_CAT_ID":"47403","CLASSIFICATION_TYPE":"U","FILE":"3378342","TIME_SYSTEM":"UTC","REV_AT_EPOCH":"6613","TLE_LINE1":"1 47403U 21005BG  22087.77423723  .00000866  00000-0  77019-4 0  9998","ECCENTRICITY":"0.00016190","LAUNCH_DATE":"2021-01-20","PERIOD":"95.592","ELEMENT_SET_NO":"999","PERIAPSIS":"546.099","INCLINATION":"53.0562","OBJECT_NAME":"STARLINK-2127","SITE":"AFETR","COUNTRY_CODE":"US","BSTAR":"0.00007701900000","MEAN_ANOMALY":"297.0887","SEMIMAJOR_AXIS":"6925.355","EPHEMERIS_TYPE":"0","CENTER_NAME":"EARTH","GP_ID":"199942619","RA_OF_ASC_NODE":"24.6361","MEAN_ELEMENT_THEORY":"SGP4","APOAPSIS":"548.341","MEAN_MOTION_DDOT":"0.0000000000000","REF_FRAME":"TEME","EPOCH":"2022-03-28T18:34:54.096672","TLE_LINE2":"2 47403  53.0562  24.6361 0001619  63.0267 297.0887 15.06397850 66135","MEAN_MOTION_DOT":"0.00000866","MEAN_MOTION":"15.06397850","OBJECT_ID":"2021-005BG"},{"MEAN_ELEMENT_THEORY":"SGP4","APOAPSIS":"548.519","CENTER_NAME":"EARTH","GP_ID":"199943371","RA_OF_ASC_NODE":"24.0546","SEMIMAJOR_AXIS":"6925.336","EPHEMERIS_TYPE":"0","SITE":"AFETR","COUNTRY_CODE":"US","BSTAR":"0.00009613400000","MEAN_ANOMALY":"309.1640","OBJECT_ID":"2021-005BH","MEAN_MOTION_DOT":"0.00001151","MEAN_MOTION":"15.06403964","EPOCH":"2022-03-28T21:40:40.309248","TLE_LINE2":"2 47404  53.0553  24.0546 0001902  50.9518 309.1640 15.06403964 66152","MEAN_MOTION_DDOT":"0.0000000000000","REF_FRAME":"TEME","TIME_SYSTEM":"UTC","FILE":"3378342","DECAY_DATE":null,"ARG_OF_PERICENTER":"50.9518","OBJECT_TYPE":"PAYLOAD","RCS_SIZE":"LARGE","NORAD_CAT_ID":"47404","CLASSIFICATION_TYPE":"U","PERIAPSIS":"545.884","INCLINATION":"53.0553","OBJECT_NAME":"STARLINK-2128","ELEMENT_SET_NO":"999","LAUNCH_DATE":"2021-01-20","PERIOD":"95.592","REV_AT_EPOCH":"6615","TLE_LINE1":"1 47404U 21005BH  22087.90324432  .00001151  00000-0  96134-4 0  9998","ECCENTRICITY":"0.00019020"},{"PERIAPSIS":"545.875","INCLINATION":"53.0545","OBJECT_NAME":"STARLINK-2130","ELEMENT_SET_NO":"999","LAUNCH_DATE":"2021-01-20","PERIOD":"95.592","REV_AT_EPOCH":"6568","TLE_LINE1":"1 47405U 21005BJ  22087.62035389  .00003995  00000-0  28693-3 0  9990","ECCENTRICITY":"0.00019070","TIME_SYSTEM":"UTC","FILE":"3378342","DECAY_DATE":null,"ARG_OF_PERICENTER":"56.2647","OBJECT_TYPE":"PAYLOAD","RCS_SIZE":"LARGE","NORAD_CAT_ID":"47405","CLASSIFICATION_TYPE":"U","OBJECT_ID":"2021-005BJ","MEAN_MOTION_DOT":"0.00003995","MEAN_MOTION":"15.06405723","EPOCH":"2022-03-28T14:53:18.576096","TLE_LINE2":"2 47405  53.0545  55.3134 0001907  56.2647 303.8523 15.06405723 65684","MEAN_MOTION_DDOT":"0.0000000000000","REF_FRAME":"TEME","MEAN_ELEMENT_THEORY":"SGP4","APOAPSIS":"548.517","CENTER_NAME":"EARTH","GP_ID":"199944122","RA_OF_ASC_NODE":"55.3134","SEMIMAJOR_AXIS":"6925.331","EPHEMERIS_TYPE":"0","SITE":"AFETR","BSTAR":"0.00028693000000","COUNTRY_CODE":"US","MEAN_ANOMALY":"303.8523"},{"ARG_OF_PERICENTER":"79.3539","DECAY_DATE":null,"OBJECT_TYPE":"PAYLOAD","RCS_SIZE":"LARGE","NORAD_CAT_ID":"47406","CLASSIFICATION_TYPE":"U","TIME_SYSTEM":"UTC","FILE":"3377801","LAUNCH_DATE":"2021-01-20","PERIOD":"95.592","REV_AT_EPOCH":"6609","TLE_LINE1":"1 47406U 21005BK  22087.51622925  .00003839  00000-0  27647-3 0  9992","ECCENTRICITY":"0.00015840","PERIAPSIS":"546.110","INCLINATION":"53.0566","OBJECT_NAME":"STARLINK-2133","ELEMENT_SET_NO":"999","SEMIMAJOR_AXIS":"6925.342","EPHEMERIS_TYPE":"0","SITE":"AFETR","COUNTRY_CODE":"US","BSTAR":"0.00027647000000","MEAN_ANOMALY":"280.7628","MEAN_ELEMENT_THEORY":"SGP4","APOAPSIS":"548.304","CENTER_NAME":"EARTH","GP_ID":"199905144","RA_OF_ASC_NODE":"25.7886","EPOCH":"2022-03-28T12:23:22.207200","TLE_LINE2":"2 47406  53.0566  25.7886 0001584  79.3539 280.7628 15.06402271 66090","MEAN_MOTION_DDOT":"0.0000000000000","REF_FRAME":"TEME","OBJECT_ID":"2021-005BK","MEAN_MOTION":"15.06402271","MEAN_MOTION_DOT":"0.00003839"}];
